CCSDS_OMM_VERS = 2.0
CREATION_DATE  = 
ORIGINATOR     = 

OBJECT_NAME    = SL-16 R/B
OBJECT_ID      = 1993-016B
CENTER_NAME    = EARTH
REF_FRAME      = TEME
TIME_SYSTEM    = UTC
MEAN_ELEMENT_THEORY = SGP/SGP4

EPOCH          = 2026-03-05T04:27:43.583904
MEAN_MOTION    = 14.15306384
ECCENTRICITY   = .00114753
INCLINATION    = 71.0061
RA_OF_ASC_NODE = 224.6402
ARG_OF_PERICENTER = 320.5366
MEAN_ANOMALY   = 39.4920

EPHEMERIS_TYPE = 0
CLASSIFICATION_TYPE = U
NORAD_CAT_ID   = 22566
ELEMENT_SET_NO = 999
REV_AT_EPOCH   = 70153
BSTAR          = .17609688E-3
MEAN_MOTION_DOT = .295E-5
MEAN_MOTION_DDOT = 0

CCSDS_OMM_VERS = 2.0
CREATION_DATE  = 
ORIGINATOR     = 

OBJECT_NAME    = COSMOS 2242
OBJECT_ID      = 1993-024A
CENTER_NAME    = EARTH
REF_FRAME      = TEME
TIME_SYSTEM    = UTC
MEAN_ELEMENT_THEORY = SGP/SGP4

EPOCH          = 2026-03-05T02:08:32.332704
MEAN_MOTION    = 14.96525659
ECCENTRICITY   = .00154906
INCLINATION    = 82.5152
RA_OF_ASC_NODE = 271.1182
ARG_OF_PERICENTER = 325.4082
MEAN_ANOMALY   = 34.6130

EPHEMERIS_TYPE = 0
CLASSIFICATION_TYPE = U
NORAD_CAT_ID   = 22626
ELEMENT_SET_NO = 999
REV_AT_EPOCH   = 77970
BSTAR          = .18458239E-3
MEAN_MOTION_DOT = .2128E-4
MEAN_MOTION_DDOT = 0

CCSDS_OMM_VERS = 2.0
CREATION_DATE  = 
ORIGINATOR     = 

OBJECT_NAME    = SL-16 R/B
OBJECT_ID      = 1993-059B
CENTER_NAME    = EARTH
REF_FRAME      = TEME
TIME_SYSTEM    = UTC
MEAN_ELEMENT_THEORY = SGP/SGP4

EPOCH          = 2026-03-05T05:48:31.380768
MEAN_MOTION    = 14.17232284
ECCENTRICITY   = .00187476
INCLINATION    = 70.9922
RA_OF_ASC_NODE = 20.5044
ARG_OF_PERICENTER = 222.9016
MEAN_ANOMALY   = 137.0647

EPHEMERIS_TYPE = 0
CLASSIFICATION_TYPE = U
NORAD_CAT_ID   = 22803
ELEMENT_SET_NO = 999
REV_AT_EPOCH   = 67890
BSTAR          = -.5466381E-5
MEAN_MOTION_DOT = -.59E-6
MEAN_MOTION_DDOT = 0

CCSDS_OMM_VERS = 2.0
CREATION_DATE  = 
ORIGINATOR     = 

OBJECT_NAME    = ARIANE 40 R/B
OBJECT_ID      = 1993-061H
CENTER_NAME    = EARTH
REF_FRAME      = TEME
TIME_SYSTEM    = UTC
MEAN_ELEMENT_THEORY = SGP/SGP4

EPOCH          = 2026-03-05T03:49:48.437760
MEAN_MOTION    = 14.32858189
ECCENTRICITY   = .00096229
INCLINATION    = 98.4924
RA_OF_ASC_NODE = 133.1364
ARG_OF_PERICENTER = 300.0937
MEAN_ANOMALY   = 59.9292

EPHEMERIS_TYPE = 0
CLASSIFICATION_TYPE = U
NORAD_CAT_ID   = 22830
ELEMENT_SET_NO = 999
REV_AT_EPOCH   = 69345
BSTAR          = .11389415E-3
MEAN_MOTION_DOT = .268E-5
MEAN_MOTION_DDOT = 0

CCSDS_OMM_VERS = 2.0
CREATION_DATE  = 
ORIGINATOR     = 

OBJECT_NAME    = COSMOS 2278
OBJECT_ID      = 1994-023A
CENTER_NAME    = EARTH
REF_FRAME      = TEME
TIME_SYSTEM    = UTC
MEAN_ELEMENT_THEORY = SGP/SGP4

EPOCH          = 2026-03-05T06:48:20.549088
MEAN_MOTION    = 14.14376796
ECCENTRICITY   = .00077404
INCLINATION    = 71.0545
RA_OF_ASC_NODE = 184.3143
ARG_OF_PERICENTER = 22.2183
MEAN_ANOMALY   = 337.9273

EPHEMERIS_TYPE = 0
CLASSIFICATION_TYPE = U
NORAD_CAT_ID   = 23087
ELEMENT_SET_NO = 999
REV_AT_EPOCH   = 64418
BSTAR          = .17129832E-3
MEAN_MOTION_DOT = .281E-5
MEAN_MOTION_DDOT = 0

CCSDS_OMM_VERS = 2.0
CREATION_DATE  = 
ORIGINATOR     = 

OBJECT_NAME    = SL-16 R/B
OBJECT_ID      = 1994-023B
CENTER_NAME    = EARTH
REF_FRAME      = TEME
TIME_SYSTEM    = UTC
MEAN_ELEMENT_THEORY = SGP/SGP4

EPOCH          = 2026-03-05T06:16:18.196608
MEAN_MOTION    = 14.15013223
ECCENTRICITY   = .00056699
INCLINATION    = 70.9987
RA_OF_ASC_NODE = 80.1880
ARG_OF_PERICENTER = 289.9733
MEAN_ANOMALY   = 70.0779

EPHEMERIS_TYPE = 0
CLASSIFICATION_TYPE = U
NORAD_CAT_ID   = 23088
ELEMENT_SET_NO = 999
REV_AT_EPOCH   = 64546
BSTAR          = -.52260618E-4
MEAN_MOTION_DOT = -.149E-5
MEAN_MOTION_DDOT = 0

CCSDS_OMM_VERS = 2.0
CREATION_DATE  = 
ORIGINATOR     = 

OBJECT_NAME    = SL-16 R/B
OBJECT_ID      = 1994-074B
CENTER_NAME    = EARTH
REF_FRAME      = TEME
TIME_SYSTEM    = UTC
MEAN_ELEMENT_THEORY = SGP/SGP4

EPOCH          = 2026-03-05T01:15:58.538304
MEAN_MOTION    = 14.79401664
ECCENTRICITY   = .00054658
INCLINATION    = 97.7114
RA_OF_ASC_NODE = 95.0582
ARG_OF_PERICENTER = 228.2670
MEAN_ANOMALY   = 160.2790

EPHEMERIS_TYPE = 0
CLASSIFICATION_TYPE = U
NORAD_CAT_ID   = 23343
ELEMENT_SET_NO = 999
REV_AT_EPOCH   = 68656
BSTAR          = .91116047E-4
MEAN_MOTION_DOT = .63E-5
MEAN_MOTION_DDOT = 0

CCSDS_OMM_VERS = 2.0
CREATION_DATE  = 
ORIGINATOR     = 

OBJECT_NAME    = SL-16 R/B
OBJECT_ID      = 1994-077B
CENTER_NAME    = EARTH
REF_FRAME      = TEME
TIME_SYSTEM    = UTC
MEAN_ELEMENT_THEORY = SGP/SGP4

EPOCH          = 2026-03-05T05:52:19.146720
MEAN_MOTION    = 14.15561763
ECCENTRICITY   = .00033485
INCLINATION    = 70.9851
RA_OF_ASC_NODE = 1.8393
ARG_OF_PERICENTER = 218.5508
MEAN_ANOMALY   = 141.5376

EPHEMERIS_TYPE = 0
CLASSIFICATION_TYPE = U
NORAD_CAT_ID   = 23405
ELEMENT_SET_NO = 999
REV_AT_EPOCH   = 61560
BSTAR          = -.86331433E-4
MEAN_MOTION_DOT = -.217E-5
MEAN_MOTION_DDOT = 0

CCSDS_OMM_VERS = 2.0
CREATION_DATE  = 
ORIGINATOR     = 

OBJECT_NAME    = ARIANE 40+ R/B
OBJECT_ID      = 1995-021B
CENTER_NAME    = EARTH
REF_FRAME      = TEME
TIME_SYSTEM    = UTC
MEAN_ELEMENT_THEORY = SGP/SGP4

EPOCH          = 2026-03-05T03:40:13.087200
MEAN_MOTION    = 14.39768547
ECCENTRICITY   = .00074501
INCLINATION    = 98.4506
RA_OF_ASC_NODE = 135.6969
ARG_OF_PERICENTER = 148.6965
MEAN_ANOMALY   = 232.6799

EPHEMERIS_TYPE = 0
CLASSIFICATION_TYPE = U
NORAD_CAT_ID   = 23561
ELEMENT_SET_NO = 999
REV_AT_EPOCH   = 61859
BSTAR          = .13507174E-3
MEAN_MOTION_DOT = .38E-5
MEAN_MOTION_DDOT = 0

CCSDS_OMM_VERS = 2.0
CREATION_DATE  = 
ORIGINATOR     = 

OBJECT_NAME    = SL-16 R/B
OBJECT_ID      = 1995-058B
CENTER_NAME    = EARTH
REF_FRAME      = TEME
TIME_SYSTEM    = UTC
MEAN_ELEMENT_THEORY = SGP/SGP4

EPOCH          = 2026-03-05T07:43:50.776608
MEAN_MOTION    = 14.15493059
ECCENTRICITY   = .00109829
INCLINATION    = 71.0212
RA_OF_ASC_NODE = 189.4236
ARG_OF_PERICENTER = 133.4816
MEAN_ANOMALY   = 226.7223

EPHEMERIS_TYPE = 0
CLASSIFICATION_TYPE = U
NORAD_CAT_ID   = 23705
ELEMENT_SET_NO = 999
REV_AT_EPOCH   = 56723
BSTAR          = .72394366E-4
MEAN_MOTION_DOT = .94E-6
MEAN_MOTION_DDOT = 0

CCSDS_OMM_VERS = 2.0
CREATION_DATE  = 
ORIGINATOR     = 

OBJECT_NAME    = SL-16 R/B
OBJECT_ID      = 1996-051B
CENTER_NAME    = EARTH
REF_FRAME      = TEME
TIME_SYSTEM    = UTC
MEAN_ELEMENT_THEORY = SGP/SGP4

EPOCH          = 2026-03-05T06:42:14.511168
MEAN_MOTION    = 14.12414380
ECCENTRICITY   = .00154696
INCLINATION    = 70.7598
RA_OF_ASC_NODE = 184.5730
ARG_OF_PERICENTER = 154.6404
MEAN_ANOMALY   = 205.5478

EPHEMERIS_TYPE = 0
CLASSIFICATION_TYPE = U
NORAD_CAT_ID   = 24298
ELEMENT_SET_NO = 999
REV_AT_EPOCH   = 52102
BSTAR          = .89655752E-4
MEAN_MOTION_DOT = .116E-5
MEAN_MOTION_DDOT = 0

CCSDS_OMM_VERS = 2.0
CREATION_DATE  = 
ORIGINATOR     = 

OBJECT_NAME    = ORBVIEW 2 (SEASTAR)
OBJECT_ID      = 1997-037A
CENTER_NAME    = EARTH
REF_FRAME      = TEME
TIME_SYSTEM    = UTC
MEAN_ELEMENT_THEORY = SGP/SGP4

EPOCH          = 2026-03-05T03:59:07.638432
MEAN_MOTION    = 14.35490983
ECCENTRICITY   = .00031591
INCLINATION    = 98.8557
RA_OF_ASC_NODE = 228.3581
ARG_OF_PERICENTER = 80.9632
MEAN_ANOMALY   = 279.1910

EPHEMERIS_TYPE = 0
CLASSIFICATION_TYPE = U
NORAD_CAT_ID   = 24883
ELEMENT_SET_NO = 999
REV_AT_EPOCH   = 50782
BSTAR          = .16600093E-3
MEAN_MOTION_DOT = .431E-5
MEAN_MOTION_DDOT = 0

